{
  "type": "FeatureCollection",
  "name": "sample_furano_line",
  "crs": {
    "type": "name",
    "properties": { "name": "urn:ogc:def:crs:OGC:1.3:CRS84" }
  },
  "features": [
    {
      "type": "Feature",
      "properties": {
        "name": "サンプル路線 (富良野線相当区間)",
        "note": "動作確認用サンプルデータ。実際の路線データに差し替えて使用してください。"
      },
      "geometry": {
        "type": "LineString",
        "coordinates": [
          [142.3850, 43.7120],
          [142.3780, 43.7050],
          [142.3700, 43.6980],
          [142.3640, 43.6890],
          [142.3580, 43.6780],
          [142.3530, 43.6660],
          [142.3490, 43.6530],
          [142.3460, 43.6400],
          [142.3440, 43.6270],
          [142.3420, 43.6140],
          [142.3400, 43.6010],
          [142.3390, 43.5880],
          [142.3380, 43.5750],
          [142.3370, 43.5620],
          [142.3360, 43.5490],
          [142.3350, 43.5360],
          [142.3340, 43.5230],
          [142.3330, 43.5100],
          [142.3310, 43.4970],
          [142.3280, 43.4840]
        ]
      }
    }
  ]
}
